NORAD_CAT_ID,OBJECT_NAME,OBJECT_TYPE,EPOCH,MEAN_MOTION,ECCENTRICITY,INCLINATION,RA_OF_ASC_NODE,ARG_OF_PERICENTER,MEAN_ANOMALY,BSTAR,MEAN_MOTION_DOT,MEAN_MOTION_DDOT,TLE_LINE0,TLE_LINE1,TLE_LINE2,SEMIMAJOR_AXIS,PERIOD,APOGEE,PERIGEE,DECAYED
53555.0,STARLINK-4504,PAYLOAD,2022-12-31 02:28:49,15.08843059,0.000186,53.2188,252.1454,49.6187,310.4967,0.00028175,4.199e-05,0.0,0 STARLINK-4504,1 53555U 22101AE  22365.10334965  .00004199  00000-0  28175-3 0  9997,2 53555  53.2188 252.1454 0001860  49.6187 310.4967 15.08843059 21157,6917.871,95.437,541.023,538.4490000000002,0.0
53555.0,STARLINK-4504,PAYLOAD,2023-01-01 02:19:37,15.08837647,0.0001962,53.2185,247.6853,47.897,312.2189,-9.5036e-05,-1.8e-05,0.0,0 STARLINK-4504,1 53555U 22101AE  23001.09696272 -.00001800  00000-0 -95036-4 0  9994,2 53555  53.2185 247.6853 0001962  47.8970 312.2189 15.08837647 20644,6917.888000000001,95.438,541.11,538.395,0.0
53555.0,STARLINK-4504,PAYLOAD,2023-01-01 18:13:30,15.08827017,0.0002065999999999,53.2188,244.7138,53.2482,306.8699,-0.00024643,-4.207e-05,0.0,0 STARLINK-4504,1 53555U 22101AE  23001.75937814 -.00004207  00000-0 -24643-3 0  9996,2 53555  53.2188 244.7138 0002066  53.2482 306.8699 15.08827017 20742,6917.92,95.438,541.214,538.356,0.0
53555.0,STARLINK-4504,PAYLOAD,2023-01-02 08:31:57,15.08835786,0.0001641999999999,53.2179,242.0351,47.6583,312.4548,-0.0001595,-2.825e-05,0.0,0 STARLINK-4504,1 53555U 22101AE  23002.35553159 -.00002825  00000-0 -15950-3 0  9994,2 53555  53.2179 242.0351 0001642  47.6583 312.4548 15.08835786 20836,6917.893,95.438,540.894,538.622,0.0
53555.0,STARLINK-4504,PAYLOAD,2023-01-02 14:53:30,15.08833568,0.0001585999999999,53.2176,240.8437,45.3498,314.7623,-9.409e-05,-1.785e-05,0.0,0 STARLINK-4504,1 53555U 22101AE  23002.62049101 -.00001785  00000-0 -94090-4 0  9998,2 53555  53.2176 240.8437 0001586  45.3498 314.7623 15.08833568 21534,6917.9,95.438,540.862,538.668,0.0
53555.0,STARLINK-4504,PAYLOAD,2023-01-02 18:04:16,15.0883282,0.0001948,53.218,240.2521,48.9309,311.1851,0.00011583,1.555e-05,0.0,0 STARLINK-4504,1 53555U 22101AE  23002.75296499  .00001555  00000-0  11583-3 0  9994,2 53555  53.2180 240.2521 0001948  48.9309 311.1851 15.08832820 20891,6917.901999999999,95.438,541.115,538.42,0.0
53555.0,STARLINK-4504,PAYLOAD,2023-01-02 22:50:25,15.08837063,0.0001946,53.2173,239.3592,44.0219,316.0928,0.000144,2.004e-05,0.0,0 STARLINK-4504,1 53555U 22101AE  23002.95168221  .00002004  00000-0  14400-3 0  9998,2 53555  53.2173 239.3592 0001946  44.0219 316.0928 15.08837063 21585,6917.889,95.438,541.101,538.408,0.0
53555.0,STARLINK-4504,PAYLOAD,2023-01-03 08:22:45,15.0882919,0.0002128,53.218,237.5746,49.3888,310.7289,6.451e-05,7.38e-06,0.0,0 STARLINK-4504,1 53555U 22101AE  23003.34913258  .00000738  00000-0  64510-4 0  9990,2 53555  53.2180 237.5746 0002128  49.3888 310.7289 15.08829190 20983,6917.913000000001,95.438,541.251,538.306,0.0
53555.0,STARLINK-4504,PAYLOAD,2023-01-04 01:51:59,15.08834021,0.000198,53.217,234.3041,45.4392,314.6762,0.00021547,3.142e-05,0.0,0 STARLINK-4504,1 53555U 22101AE  23004.07776846  .00003142  00000-0  21547-3 0  9995,2 53555  53.2170 234.3041 0001980  45.4392 314.6762 15.08834021 21098,6917.899,95.438,541.133,538.394,0.0
53555.0,STARLINK-4504,PAYLOAD,2023-01-04 08:13:32,15.08828013,0.0001965,53.2183,233.1157,52.1422,307.9748,0.00012436,1.691e-05,0.0,0 STARLINK-4504,1 53555U 22101AE  23004.34273687  .00001691  00000-0  12436-3 0  9994,2 53555  53.2183 233.1157 0001965  52.1422 307.9748 15.08828013 21137,6917.917,95.438,541.141,538.423,0.0
53555.0,STARLINK-4504,PAYLOAD,2023-01-05 00:07:23,15.08843693,0.0001817,53.2174,230.1426,52.3728,307.7429,-5.7929e-06,-3.8e-06,0.0,0 STARLINK-4504,1 53555U 22101AE  23005.00513085 -.00000380  00000-0 -57929-5 0  9991,2 53555  53.2174 230.1426 0001817  52.3728 307.7429 15.08843693 21236,6917.869000000002,95.437,540.991,538.477,0.0
53555.0,STARLINK-4504,PAYLOAD,2023-01-05 08:04:19,15.0884083,0.0001914,53.2174,228.6557,52.0753,308.0412,-5.8428e-05,-1.218e-05,0.0,0 STARLINK-4504,1 53555U 22101AE  23005.33633425 -.00001218  00000-0 -58428-4 0  9993,2 53555  53.2174 228.6557 0001914  52.0753 308.0412 15.08840830 21940,6917.878000000002,95.438,541.067,538.419,0.0
53555.0,STARLINK-4504,PAYLOAD,2023-01-05 17:36:38,15.08829773,0.0001865,53.2173,226.8708,51.5241,308.5919,-7.8723e-05,-1.5399999999999998e-05,0.0,0 STARLINK-4504,1 53555U 22101AE  23005.73378302 -.00001540  00000-0 -78723-4 0  9995,2 53555  53.2173 226.8708 0001865  51.5241 308.5919 15.08829773 22006,6917.9119999999975,95.438,541.067,538.486,0.0
53555.0,STARLINK-4504,PAYLOAD,2023-01-06 07:55:06,15.08842313,0.0001786,53.2177,224.193,55.8599,304.2562,-2.7595e-05,-7.27e-06,0.0,0 STARLINK-4504,1 53555U 22101AE  23006.32993419 -.00000727  00000-0 -27595-4 0  9990,2 53555  53.2177 224.1930 0001786  55.8599 304.2562 15.08842313 21431,6917.873000000001,95.437,540.974,538.503,0.0
53555.0,STARLINK-4504,PAYLOAD,2023-01-06 14:16:38,15.08837878,0.0001841,53.2176,223.0037,56.5365,303.5803,4.0125e-05,3.500000000000001e-06,0.0,0 STARLINK-4504,1 53555U 22101AE  23006.59489495  .00000350  00000-0  40125-4 0  9997,2 53555  53.2176 223.0037 0001841  56.5365 303.5803 15.08837878 22135,6917.887,95.438,541.025,538.4780000000002,0.0
53555.0,STARLINK-4504,PAYLOAD,2023-01-07 20:28:58,15.08835136,0.0001794,53.2177,217.3536,61.6542,298.4631,7.7103e-05,9.39e-06,0.0,0 STARLINK-4504,1 53555U 22101AE  23007.85345566  .00000939  00000-0  77103-4 0  9996,2 53555  53.2177 217.3536 0001794  61.6542 298.4631 15.08835136 21660,6917.895,95.438,541.001,538.519,0.0
53555.0,STARLINK-4504,PAYLOAD,2023-01-08 09:12:03,15.08836599,0.0001797,53.217,214.9758,59.8342,300.2828,-5.3176e-06,-3.73e-06,0.0,0 STARLINK-4504,1 53555U 22101AE  23008.38337812 -.00000373  00000-0 -53176-5 0  9999,2 53555  53.2170 214.9758 0001797  59.8342 300.2828 15.08836599 22409,6917.891,95.438,540.999,538.513,0.0
53555.0,STARLINK-4504,PAYLOAD,2023-01-08 20:19:45,15.08840967,0.0001815,53.2171,212.8941,63.5549,296.563,-2.8631e-05,-7.44e-06,0.0,0 STARLINK-4504,1 53555U 22101AE  23008.84705618 -.00000744  00000-0 -28631-4 0  9992,2 53555  53.2171 212.8941 0001815  63.5549 296.5630 15.08840967 22472,6917.877,95.437,540.998,538.487,0.0
53555.0,STARLINK-4504,PAYLOAD,2023-01-09 05:52:04,15.08838842,0.0001829,53.2171,211.11,63.3927,296.7253,-7.8353e-06,-4.13e-06,0.0,0 STARLINK-4504,1 53555U 22101AE  23009.24449672 -.00000413  00000-0 -78353-5 0  9992,2 53555  53.2171 211.1100 0001829  63.3927 296.7253 15.08838842 21879,6917.884,95.438,541.014,538.484,0.0
53555.0,STARLINK-4504,PAYLOAD,2023-01-09 13:49:00,15.08834855,0.0001829,53.2171,209.6233,63.8733,296.2447,-6.1188e-06,-3.85e-06,0.0,0 STARLINK-4504,1 53555U 22101AE  23009.57569951 -.00000385  00000-0 -61188-5 0  9997,2 53555  53.2171 209.6233 0001829  63.8733 296.2447 15.08834855 22587,6917.896,95.438,541.026,538.496,0.0
53555.0,STARLINK-4504,PAYLOAD,2023-01-10 12:04:24,15.08835862,0.0001812,53.2172,205.4611,65.4629,294.6552,2.4134e-05,9.6e-07,0.0,0 STARLINK-4504,1 53555U 22101AE  23010.50305942  .00000096  00000-0  24134-4 0  9996,2 53555  53.2172 205.4611 0001812  65.4629 294.6552 15.08835862 22067,6917.893,95.438,541.012,538.505,0.0
53555.0,STARLINK-4504,PAYLOAD,2023-01-10 20:01:20,15.08835959,0.0001808,53.2172,203.9742,65.2039,294.9141,1.3275e-05,-7.7e-07,0.0,0 STARLINK-4504,1 53555U 22101AE  23010.83426039 -.00000077  00000-0  13275-4 0  9997,2 53555  53.2172 203.9742 0001808  65.2039 294.9141 15.08835959 22775,6917.893,95.438,541.008,538.507,0.0
53555.0,STARLINK-4504,PAYLOAD,2023-01-11 05:33:38,15.08836571,0.0001866,53.2168,202.1897,66.6571,293.4618,4.4049e-06,-2.18e-06,0.0,0 STARLINK-4504,1 53555U 22101AE  23011.23170107 -.00000218  00000-0  44049-5 0  9995,2 53555  53.2168 202.1897 0001866  66.6571 293.4618 15.08836571 22833,6917.891,95.438,541.047,538.465,0.0
53555.0,STARLINK-4504,PAYLOAD,2023-01-11 15:05:57,15.0883666,0.00018,53.2171,200.4052,69.0937,291.0248,2.138800000000001e-05,5.2e-07,0.0,0 STARLINK-4504,1 53555U 22101AE  23011.62914076  .00000052  00000-0  21388-4 0  9994,2 53555  53.2171 200.4052 0001800  69.0937 291.0248 15.08836660 22238,6917.891,95.438,541.001,538.51,0.0
53555.0,STARLINK-4504,PAYLOAD,2023-01-11 21:27:30,15.08840409,0.0001822,53.2169,199.2159,70.294,289.8248,4.5158e-05,4.31e-06,0.0,0 STARLINK-4504,1 53555U 22101AE  23011.89409790  .00000431  00000-0  45158-4 0  9997,2 53555  53.2169 199.2159 0001822  70.2940 289.8248 15.08840409 22938,6917.879,95.438,541.005,538.484,0.0
53555.0,STARLINK-4504,PAYLOAD,2023-01-12 21:18:17,15.08834196,0.0001837,53.2168,194.7556,72.1925,287.9268,-1.146e-05,-4.7e-06,0.0,0 STARLINK-4504,1 53555U 22101AE  23012.88770532 -.00000470  00000-0 -11460-4 0  9996,2 53555  53.2168 194.7556 0001837  72.1925 287.9268 15.08834196 22429,6917.898,95.438,541.034,538.492,0.0
53555.0,STARLINK-4504,PAYLOAD,2023-01-13 14:47:31,15.08842592,0.0002645,53.2143,191.4853,76.8635,283.2652,3.4785e-05,2.65e-06,0.0,0 STARLINK-4504,1 53555U 22101AE  23013.61634180  .00000265  00000-0  34785-4 0  9991,2 53555  53.2143 191.4853 0002645  76.8635 283.2652 15.08842592 22530,6917.871999999999,95.437,541.567,537.908,0.0
53555.0,STARLINK-4504,PAYLOAD,2023-01-13 21:09:04,15.08842862,0.0003872,53.2096,190.3018,70.37899999999999,289.7619,5.0964e-05,5.22e-06,0.0,0 STARLINK-4504,1 53555U 22101AE  23013.88130563  .00000522  00000-0  50964-4 0  9999,2 53555  53.2096 190.3018 0003872  70.3790 289.7619 15.08842862 23234,6917.871999999999,95.437,542.415,537.058,0.0
53555.0,STARLINK-4504,PAYLOAD,2023-01-14 17:49:04,15.0884299,0.0001939,53.216,186.4281,85.4707,274.6506,2.9438e-05,1.8e-06,0.0,0 STARLINK-4504,1 53555U 22101AE  23014.74241762  .00000180  00000-0  29438-4 0  9991,2 53555  53.2160 186.4281 0001939  85.4707 274.6506 15.08842990 22702,6917.871,95.437,541.078,538.395,0.0
